start=new Date('2023-03-05T00:00:00.000Z').valueOf();
sats=[{"MEAN_ANOMALY":"274.7788","DECAY_DATE":null,"PERIOD":"95.436","EPHEMERIS_TYPE":"0","MEAN_MOTION_DOT":"0.00059473","TLE_LINE1":"1 53000U 22076Q   23063.84562965  .00059473  00000-0  37206-2 0  9992","PERIAPSIS":"538.525","NORAD_CAT_ID":"53000","OBJECT_ID":"2022-076Q","MEAN_MOTION_DDOT":"0.0000000000000","ELEMENT_SET_NO":"999","BSTAR":"0.00372060000000","REF_FRAME":"TEME","SEMIMAJOR_AXIS":"6917.792","CENTER_NAME":"EARTH","TIME_SYSTEM":"UTC","OBJECT_TYPE":"PAYLOAD","MEAN_ELEMENT_THEORY":"SGP4","REV_AT_EPOCH":"3665","TLE_LINE2":"2 53000  53.2171 356.0015 0001636  85.3391 274.7788 15.08868969 36657","CLASSIFICATION_TYPE":"U","INCLINATION":"53.2171","ECCENTRICITY":"0.00016360","SITE":"AFETR","EPOCH":"2023-03-04T20:17:42.401760","GP_ID":"227509292","COUNTRY_CODE":"US","OBJECT_NAME":"STARLINK-4194","APOAPSIS":"540.789","LAUNCH_DATE":"2022-07-07","FILE":"3851350","MEAN_MOTION":"15.08868969","RCS_SIZE":"LARGE","ARG_OF_PERICENTER":"85.3391","RA_OF_ASC_NODE":"356.0015"},{"REF_FRAME":"TEME","SEMIMAJOR_AXIS":"6917.949","CENTER_NAME":"EARTH","TIME_SYSTEM":"UTC","OBJECT_TYPE":"PAYLOAD","OBJECT_ID":"2022-076R","MEAN_MOTION_DDOT":"0.0000000000000","ELEMENT_SET_NO":"999","BSTAR":"0.00052237000000","MEAN_MOTION_DOT":"0.00008030","TLE_LINE1":"1 53001U 22076R   23063.82722127  .00008030  00000-0  52237-3 0  9994","PERIAPSIS":"538.808","NORAD_CAT_ID":"53001","MEAN_ANOMALY":"262.4304","DECAY_DATE":null,"EPHEMERIS_TYPE":"0","PERIOD":"95.439","MEAN_MOTION":"15.08817406","FILE":"3851350","RCS_SIZE":"LARGE","ARG_OF_PERICENTER":"97.6853","RA_OF_ASC_NODE":"356.0877","APOAPSIS":"540.821","LAUNCH_DATE":"2022-07-07","SITE":"AFETR","ECCENTRICITY":"0.00014550","EPOCH":"2023-03-04T19:51:11.917728","GP_ID":"227509541","COUNTRY_CODE":"US","OBJECT_NAME":"STARLINK-4190","MEAN_ELEMENT_THEORY":"SGP4","REV_AT_EPOCH":"3665","TLE_LINE2":"2 53001  53.2169 356.0877 0001455  97.6853 262.4304 15.08817406 36657","CLASSIFICATION_TYPE":"U","INCLINATION":"53.2169"},{"EPHEMERIS_TYPE":"0","DECAY_DATE":null,"PERIOD":"95.440","MEAN_ANOMALY":"259.6661","NORAD_CAT_ID":"53002","TLE_LINE1":"1 53002U 22076S   23063.17954565 -.00038299  00000-0 -24034-2 0  9991","PERIAPSIS":"538.796","MEAN_MOTION_DOT":"-0.00038299","BSTAR":"-0.00240340000000","ELEMENT_SET_NO":"999","MEAN_MOTION_DDOT":"0.0000000000000","OBJECT_ID":"2022-076S","OBJECT_TYPE":"PAYLOAD","TIME_SYSTEM":"UTC","CENTER_NAME":"EARTH","SEMIMAJOR_AXIS":"6917.985","REF_FRAME":"TEME","INCLINATION":"53.2171","CLASSIFICATION_TYPE":"U","TLE_LINE2":"2 53002  53.2171 358.9965 0001524 100.4502 259.6661 15.08805778 36553","REV_AT_EPOCH":"3655","MEAN_ELEMENT_THEORY":"SGP4","OBJECT_NAME":"STARLINK-4121","COUNTRY_CODE":"US","GP_ID":"227476524","EPOCH":"2023-03-04T04:18:32.744160","SITE":"AFETR","ECCENTRICITY":"0.00015240","LAUNCH_DATE":"2022-07-07","APOAPSIS":"540.904","RA_OF_ASC_NODE":"358.9965","ARG_OF_PERICENTER":"100.4502","RCS_SIZE":"LARGE","FILE":"3851072","MEAN_MOTION":"15.08805778"},{"BSTAR":"0.00054679000000","ELEMENT_SET_NO":"999","MEAN_MOTION_DDOT":"0.0000000000000","OBJECT_ID":"2022-076T","OBJECT_TYPE":"PAYLOAD","TIME_SYSTEM":"UTC","SEMIMAJOR_AXIS":"6917.872","CENTER_NAME":"EARTH","REF_FRAME":"TEME","EPHEMERIS_TYPE":"0","DECAY_DATE":null,"PERIOD":"95.437","MEAN_ANOMALY":"252.9838","NORAD_CAT_ID":"53003","TLE_LINE1":"1 53003U 22076T   23063.81986434  .00008426  00000-0  54679-3 0  9999","PERIAPSIS":"538.840","MEAN_MOTION_DOT":"0.00008426","LAUNCH_DATE":"2022-07-07","APOAPSIS":"540.634","RA_OF_ASC_NODE":"356.1195","RCS_SIZE":"LARGE","ARG_OF_PERICENTER":"107.1296","FILE":"3851350","MEAN_MOTION":"15.08842768","INCLINATION":"53.2163","REV_AT_EPOCH":"3665","TLE_LINE2":"2 53003  53.2163 356.1195 0001297 107.1296 252.9838 15.08842768 36654","CLASSIFICATION_TYPE":"U","MEAN_ELEMENT_THEORY":"SGP4","OBJECT_NAME":"STARLINK-4255","GP_ID":"227510031","COUNTRY_CODE":"US","ECCENTRICITY":"0.00012970","SITE":"AFETR","EPOCH":"2023-03-04T19:40:36.278976"},{"APOAPSIS":"540.958","LAUNCH_DATE":"2022-07-07","RA_OF_ASC_NODE":"355.7514","MEAN_MOTION":"15.08823653","FILE":"3851350","ARG_OF_PERICENTER":"113.0081","RCS_SIZE":"LARGE","CLASSIFICATION_TYPE":"U","REV_AT_EPOCH":"3666","TLE_LINE2":"2 53004  53.2190 355.7514 0001681 113.0081 247.1089 15.08823653 36667","INCLINATION":"53.2190","MEAN_ELEMENT_THEORY":"SGP4","OBJECT_NAME":"STARLINK-4253","EPOCH":"2023-03-04T21:37:11.886528","ECCENTRICITY":"0.00016810","SITE":"AFETR","COUNTRY_CODE":"US","GP_ID":"227508794","ELEMENT_SET_NO":"999","BSTAR":"0.00074598000000","OBJECT_ID":"2022-076U","MEAN_MOTION_DDOT":"0.0000000000000","TIME_SYSTEM":"UTC","OBJECT_TYPE":"PAYLOAD","REF_FRAME":"TEME","CENTER_NAME":"EARTH","SEMIMAJOR_AXIS":"6917.930","MEAN_ANOMALY":"247.1089","DECAY_DATE":null,"PERIOD":"95.439","EPHEMERIS_TYPE":"0","TLE_LINE1":"1 53004U 22076U   23063.90083202  .00011599  00000-0  74598-3 0  9998","PERIAPSIS":"538.632","NORAD_CAT_ID":"53004","MEAN_MOTION_DOT":"0.00011599"},{"MEAN_ELEMENT_THEORY":"SGP4","INCLINATION":"53.2172","CLASSIFICATION_TYPE":"U","TLE_LINE2":"2 53005  53.2172 356.1393 0001518  65.6985 294.4166 15.08831829 36656","REV_AT_EPOCH":"3665","COUNTRY_CODE":"US","GP_ID":"227509042","EPOCH":"2023-03-04T19:35:18.772800","SITE":"AFETR","ECCENTRICITY":"0.00015180","OBJECT_NAME":"STARLINK-4288","LAUNCH_DATE":"2022-07-07","APOAPSIS":"540.821","ARG_OF_PERICENTER":"65.6985","RCS_SIZE":"LARGE","MEAN_MOTION":"15.08831829","FILE":"3851350","RA_OF_ASC_NODE":"356.1393","DECAY_DATE":null,"EPHEMERIS_TYPE":"0","PERIOD":"95.438","MEAN_ANOMALY":"294.4166","MEAN_MOTION_DOT":"0.00010998","NORAD_CAT_ID":"53005","PERIAPSIS":"538.720","TLE_LINE1":"1 53005U 22076V   23063.81618950  .00010998  00000-0  70814-3 0  9992","MEAN_MOTION_DDOT":"0.0000000000000","OBJECT_ID":"2022-076V","BSTAR":"0.00070814000000","ELEMENT_SET_NO":"999","CENTER_NAME":"EARTH","SEMIMAJOR_AXIS":"6917.905","REF_FRAME":"TEME","OBJECT_TYPE":"PAYLOAD","TIME_SYSTEM":"UTC"},{"SEMIMAJOR_AXIS":"6917.933","CENTER_NAME":"EARTH","REF_FRAME":"TEME","OBJECT_TYPE":"PAYLOAD","TIME_SYSTEM":"UTC","MEAN_MOTION_DDOT":"0.0000000000000","OBJECT_ID":"2022-076W","BSTAR":"0.00066384000000","ELEMENT_SET_NO":"999","MEAN_MOTION_DOT":"0.00010288","NORAD_CAT_ID":"53006","TLE_LINE1":"1 53006U 22076W   23063.82355775  .00010288  00000-0  66384-3 0  9996","PERIAPSIS":"539.031","PERIOD":"95.439","DECAY_DATE":null,"EPHEMERIS_TYPE":"0","MEAN_ANOMALY":"273.4113","RCS_SIZE":"LARGE","ARG_OF_PERICENTER":"86.7006","FILE":"3851350","MEAN_MOTION":"15.08822639","RA_OF_ASC_NODE":"356.1029","LAUNCH_DATE":"2022-07-07","APOAPSIS":"540.566","GP_ID":"227509794","COUNTRY_CODE":"US","SITE":"AFETR","ECCENTRICITY":"0.00011090","EPOCH":"2023-03-04T19:45:55.389600","OBJECT_NAME":"STARLINK-4290","MEAN_ELEMENT_THEORY":"SGP4","INCLINATION":"53.2145","REV_AT_EPOCH":"3665","TLE_LINE2":"2 53006  53.2145 356.1029 0001109  86.7006 273.4113 15.08822639 36655","CLASSIFICATION_TYPE":"U"},{"CLASSIFICATION_TYPE":"U","TLE_LINE2":"2 53007  53.2168 358.8463 0001394 110.7915 249.3227 15.08897051 36563","REV_AT_EPOCH":"3656","INCLINATION":"53.2168","MEAN_ELEMENT_THEORY":"SGP4","OBJECT_NAME":"STARLINK-4215","EPOCH":"2023-03-04T05:06:13.470624","ECCENTRICITY":"0.00013940","SITE":"AFETR","COUNTRY_CODE":"US","GP_ID":"227477263","APOAPSIS":"540.535","LAUNCH_DATE":"2022-07-07","RA_OF_ASC_NODE":"358.8463","MEAN_MOTION":"15.08897051","FILE":"3851072","ARG_OF_PERICENTER":"110.7915","RCS_SIZE":"LARGE","MEAN_ANOMALY":"249.3227","EPHEMERIS_TYPE":"0","DECAY_DATE":null,"PERIOD":"95.434","TLE_LINE1":"1 53007U 22076X   23063.21265591  .00035210  00000-0  22159-2 0  9999","PERIAPSIS":"538.607","NORAD_CAT_ID":"53007","MEAN_MOTION_DOT":"0.00035210","ELEMENT_SET_NO":"999","BSTAR":"0.00221590000000","OBJECT_ID":"2022-076X","MEAN_MOTION_DDOT":"0.0000000000000","TIME_SYSTEM":"UTC","OBJECT_TYPE":"PAYLOAD","REF_FRAME":"TEME","CENTER_NAME":"EARTH","SEMIMAJOR_AXIS":"6917.706"},{"MEAN_ELEMENT_THEORY":"SGP4","REV_AT_EPOCH":"3665","TLE_LINE2":"2 53008  53.2166 356.1470 0001735  87.4358 272.6833 15.08842169 36653","CLASSIFICATION_TYPE":"U","INCLINATION":"53.2166","SITE":"AFETR","ECCENTRICITY":"0.00017350","EPOCH":"2023-03-04T19:31:23.803680","GP_ID":"227509293","COUNTRY_CODE":"US","OBJECT_NAME":"STARLINK-4275","APOAPSIS":"540.939","LAUNCH_DATE":"2022-07-07","FILE":"3851350","MEAN_MOTION":"15.08842169","RCS_SIZE":"LARGE","ARG_OF_PERICENTER":"87.4358","RA_OF_ASC_NODE":"356.1470","MEAN_ANOMALY":"272.6833","DECAY_DATE":null,"PERIOD":"95.437","EPHEMERIS_TYPE":"0","MEAN_MOTION_DOT":"0.00035652","PERIAPSIS":"538.539","TLE_LINE1":"1 53008U 22076Y   23063.81346995  .00035652  00000-0  22467-2 0  9996","NORAD_CAT_ID":"53008","OBJECT_ID":"2022-076Y","MEAN_MOTION_DDOT":"0.0000000000000","ELEMENT_SET_NO":"999","BSTAR":"0.00224670000000","REF_FRAME":"TEME","SEMIMAJOR_AXIS":"6917.874","CENTER_NAME":"EARTH","TIME_SYSTEM":"UTC","OBJECT_TYPE":"PAYLOAD"},{"TIME_SYSTEM":"UTC","OBJECT_TYPE":"PAYLOAD","REF_FRAME":"TEME","CENTER_NAME":"EARTH","SEMIMAJOR_AXIS":"6917.629","ELEMENT_SET_NO":"999","BSTAR":"0.00389430000000","OBJECT_ID":"2022-076Z","MEAN_MOTION_DDOT":"0.0000000000000","PERIAPSIS":"538.164","TLE_LINE1":"1 53009U 22076Z   23063.06641838  .00062379  00000-0  38943-2 0  9990","NORAD_CAT_ID":"53009","MEAN_MOTION_DOT":"0.00062379","MEAN_ANOMALY":"320.8152","DECAY_DATE":null,"PERIOD":"95.432","EPHEMERIS_TYPE":"0","RA_OF_ASC_NODE":"349.5016","FILE":"3851072","MEAN_MOTION":"15.08922102","ARG_OF_PERICENTER":"39.2980","RCS_SIZE":"LARGE","APOAPSIS":"540.825","LAUNCH_DATE":"2022-07-07","OBJECT_NAME":"STARLINK-4277","EPOCH":"2023-03-04T01:35:38.548032","SITE":"AFETR","ECCENTRICITY":"0.00019230","COUNTRY_CODE":"US","GP_ID":"227475774","CLASSIFICATION_TYPE":"U","REV_AT_EPOCH":"3667","TLE_LINE2":"2 53009  53.2178 349.5016 0001923  39.2980 320.8152 15.08922102 36672","INCLINATION":"53.2178","MEAN_ELEMENT_THEORY":"SGP4"}];
